{
  "norad_id": 54204,
  "name": "STARLINK-5241",
  "history": [
    {
      "epoch": "2026-03-28T21:31:50.486304Z",
      "apogee_km": 540.5531318886151,
      "perigee_km": 538.9122132022876,
      "latitude_deg": -1.7484130114491408e-07,
      "longitude_deg": 118.19227030019897,
      "height_km": 540.61299583168,
      "semi_major_axis_km": 6917.869672545451,
      "eccentricity": 0.0001186,
      "inclination_deg": 53.2168,
      "raan_deg": 267.4636,
      "arg_perigee_deg": 88.9133,
      "mean_anomaly_deg": 271.1995,
      "mean_motion_rev_day": 15.08843506
    },
    {
      "epoch": "2026-03-29T21:22:38.042976Z",
      "apogee_km": 540.6151697863206,
      "perigee_km": 538.8912315483149,
      "latitude_deg": 2.9974875450410523e-05,
      "longitude_deg": 115.0540975866439,
      "height_km": 540.704803104993,
      "semi_major_axis_km": 6917.890200667318,
      "eccentricity": 0.0001246,
      "inclination_deg": 53.2175,
      "raan_deg": 263.0029,
      "arg_perigee_deg": 93.7071,
      "mean_anomaly_deg": 266.4064,
      "mean_motion_rev_day": 15.0883679
    }
  ]
}